{
  "type": "FeatureCollection",
  "features": [
    {
      "type": "Feature",
      "properties": {
        "norad_id": 31923,
        "name": "FENGYUN 1C DEB",
        "group": "fengyun-1c-debris",
        "lat": 62.002727461980584,
        "lon": 62.09883342453009,
        "alt_km": 1128.9228451744084,
        "timestamp": "2025-12-10T04:57:29.903286+00:00",
        "meta_object_name": "FENGYUN 1C DEB",
        "meta_object_id": "1999-025CMA",
        "meta_epoch": "2025-12-07T05:45:32.283936",
        "meta_mean_motion": 13.54870138,
        "meta_eccentricity": 0.02998306,
        "meta_inclination": 98.439,
        "meta_ra_of_asc_node": 75.7726,
        "meta_arg_of_pericenter": 318.1759,
        "meta_mean_anomaly": 39.6815,
        "meta_ephemeris_type": 0,
        "meta_classification_type": "U",
        "meta_norad_cat_id": 31923,
        "meta_element_set_no": 999,
        "meta_rev_at_epoch": 63560,
        "meta_bstar": 0.0019569424,
        "meta_mean_motion_dot": 1.755e-05,
        "meta_mean_motion_ddot": 0,
        "tle_line1": "1 31923U 99025CMA 25341.23995699  .00001755  00000+0  19569-2 0  9999",
        "tle_line2": "2 31923  98.4390  75.7726 0299830 318.1759  39.6815 13.54870138635604"
      },
      "geometry": {
        "type": "Point",
        "coordinates": [
          62.09883342453009,
          62.002727461980584
        ]
      }
    },
    {
      "type": "Feature",
      "properties": {
        "norad_id": 31924,
        "name": "FENGYUN 1C DEB",
        "group": "fengyun-1c-debris",
        "lat": -66.22492458191229,
        "lon": -57.70636439945962,
        "alt_km": 1190.4279982415464,
        "timestamp": "2025-12-10T04:57:29.903296+00:00",
        "meta_object_name": "FENGYUN 1C DEB",
        "meta_object_id": "1999-025CMB",
        "meta_epoch": "2025-12-06T09:58:46.050528",
        "meta_mean_motion": 13.63882234,
        "meta_eccentricity": 0.02732969,
        "meta_inclination": 98.4014,
        "meta_ra_of_asc_node": 138.613,
        "meta_arg_of_pericenter": 113.6676,
        "meta_mean_anomaly": 249.3407,
        "meta_ephemeris_type": 0,
        "meta_classification_type": "U",
        "meta_norad_cat_id": 31924,
        "meta_element_set_no": 999,
        "meta_rev_at_epoch": 91381,
        "meta_bstar": 0.0024555476,
        "meta_mean_motion_dot": 2.479e-05,
        "meta_mean_motion_ddot": 0,
        "tle_line1": "1 31924U 99025CMB 25340.41581077  .00002479  00000+0  24555-2 0  9995",
        "tle_line2": "2 31924  98.4014 138.6130 0273296 113.6676 249.3407 13.63882234913819"
      },
      "geometry": {
        "type": "Point",
        "coordinates": [
          -57.70636439945962,
          -66.22492458191229
        ]
      }
    },
    {
      "type": "Feature",
      "properties": {
        "norad_id": 31926,
        "name": "FENGYUN 1C DEB",
        "group": "fengyun-1c-debris",
        "lat": 66.00768622500352,
        "lon": 58.60940696342477,
        "alt_km": 810.0442548736228,
        "timestamp": "2025-12-10T04:57:29.903306+00:00",
        "meta_object_name": "FENGYUN 1C DEB",
        "meta_object_id": "1999-025CMD",
        "meta_epoch": "2025-12-08T17:23:36.069792",
        "meta_mean_motion": 14.30650392,
        "meta_eccentricity": 0.00386907,
        "meta_inclination": 98.9579,
        "meta_ra_of_asc_node": 77.8403,
        "meta_arg_of_pericenter": 264.5983,
        "meta_mean_anomaly": 95.0784,
        "meta_ephemeris_type": 0,
        "meta_classification_type": "U",
        "meta_norad_cat_id": 31926,
        "meta_element_set_no": 999,
        "meta_rev_at_epoch": 95170,
        "meta_bstar": 0.0037830562,
        "meta_mean_motion_dot": 9.932e-05,
        "meta_mean_motion_ddot": 0,
        "tle_line1": "1 31926U 99025CMD 25342.72472303  .00009932  00000+0  37831-2 0  9996",
        "tle_line2": "2 31926  98.9579  77.8403 0038690 264.5983  95.0784 14.30650392951700"
      },
      "geometry": {
        "type": "Point",
        "coordinates": [
          58.60940696342477,
          66.00768622500352
        ]
      }
    },
    {
      "type": "Feature",
      "properties": {
        "norad_id": 31929,
        "name": "FENGYUN 1C DEB",
        "group": "fengyun-1c-debris",
        "lat": 52.80372513066004,
        "lon": -54.72553236681024,
        "alt_km": 746.2422767141079,
        "timestamp": "2025-12-10T04:57:29.903316+00:00",
        "meta_object_name": "FENGYUN 1C DEB",
        "meta_object_id": "1999-025CME",
        "meta_epoch": "2025-12-09T03:16:35.251104",
        "meta_mean_motion": 14.34920779,
        "meta_eccentricity": 0.00743618,
        "meta_inclination": 98.7904,
        "meta_ra_of_asc_node": 112.4212,
        "meta_arg_of_pericenter": 65.9242,
        "meta_mean_anomaly": 294.97,
        "meta_ephemeris_type": 0,
        "meta_classification_type": "U",
        "meta_norad_cat_id": 31929,
        "meta_element_set_no": 999,
        "meta_rev_at_epoch": 70594,
        "meta_bstar": 0.00066399102,
        "meta_mean_motion_dot": 1.903e-05,
        "meta_mean_motion_ddot": 0,
        "tle_line1": "1 31929U 99025CME 25343.13651911  .00001903  00000+0  66399-3 0  9991",
        "tle_line2": "2 31929  98.7904 112.4212 0074361  65.9242 294.9700 14.34920779705947"
      },
      "geometry": {
        "type": "Point",
        "coordinates": [
          -54.72553236681024,
          52.80372513066004
        ]
      }
    },
    {
      "type": "Feature",
      "properties": {
        "norad_id": 31931,
        "name": "FENGYUN 1C DEB",
        "group": "fengyun-1c-debris",
        "lat": -6.22358472410576,
        "lon": -63.910901381505774,
        "alt_km": 1022.4000870207828,
        "timestamp": "2025-12-10T04:57:29.903326+00:00",
        "meta_object_name": "FENGYUN 1C DEB",
        "meta_object_id": "1999-025CMG",
        "meta_epoch": "2025-12-08T02:54:38.657664",
        "meta_mean_motion": 13.42606691,
        "meta_eccentricity": 0.04234013,
        "meta_inclination": 97.8131,
        "meta_ra_of_asc_node": 293.6089,
        "meta_arg_of_pericenter": 281.6721,
        "meta_mean_anomaly": 73.7205,
        "meta_ephemeris_type": 0,
        "meta_classification_type": "U",
        "meta_norad_cat_id": 31931,
        "meta_element_set_no": 999,
        "meta_rev_at_epoch": 65160,
        "meta_bstar": 0.0018287919,
        "meta_mean_motion_dot": 1.733e-05,
        "meta_mean_motion_ddot": 0,
        "tle_line1": "1 31931U 99025CMG 25342.12128076  .00001733  00000+0  18288-2 0  9997",
        "tle_line2": "2 31931  97.8131 293.6089 0423401 281.6721  73.7205 13.42606691651606"
      },
      "geometry": {
        "type": "Point",
        "coordinates": [
          -63.910901381505774,
          -6.22358472410576
        ]
      }
    },
    {
      "type": "Feature",
      "properties": {
        "norad_id": 31934,
        "name": "FENGYUN 1C DEB",
        "group": "fengyun-1c-debris",
        "lat": -37.362594025264485,
        "lon": -153.70149053444516,
        "alt_km": 528.3479662888612,
        "timestamp": "2025-12-10T04:57:29.903337+00:00",
        "meta_object_name": "FENGYUN 1C DEB",
        "meta_object_id": "1999-025CMK",
        "meta_epoch": "2025-12-04T09:16:56.352576",
        "meta_mean_motion": 15.05606214,
        "meta_eccentricity": 0.0038121,
        "meta_inclination": 98.8816,
        "meta_ra_of_asc_node": 26.4564,
        "meta_arg_of_pericenter": 260.5868,
        "meta_mean_anomaly": 99.1044,
        "meta_ephemeris_type": 0,
        "meta_classification_type": "U",
        "meta_norad_cat_id": 31934,
        "meta_element_set_no": 999,
        "meta_rev_at_epoch": 60717,
        "meta_bstar": 0.0071095,
        "meta_mean_motion_dot": 0.00105581,
        "meta_mean_motion_ddot": 0,
        "tle_line1": "1 31934U 99025CMK 25338.38676334  .00105581  00000+0  71095-2 0  9999",
        "tle_line2": "2 31934  98.8816  26.4564 0038121 260.5868  99.1044 15.05606214607177"
      },
      "geometry": {
        "type": "Point",
        "coordinates": [
          -153.70149053444516,
          -37.362594025264485
        ]
      }
    },
    {
      "type": "Feature",
      "properties": {
        "norad_id": 31937,
        "name": "FENGYUN 1C DEB",
        "group": "fengyun-1c-debris",
        "lat": 21.586390136008816,
        "lon": -102.88105380002145,
        "alt_km": 730.8175268991063,
        "timestamp": "2025-12-10T04:57:29.903346+00:00",
        "meta_object_name": "FENGYUN 1C DEB",
        "meta_object_id": "1999-025CMN",
        "meta_epoch": "2025-12-06T23:52:27.149088",
        "meta_mean_motion": 14.78022374,
        "meta_eccentricity": 0.0162921,
        "meta_inclination": 99.2561,
        "meta_ra_of_asc_node": 69.7316,
        "meta_arg_of_pericenter": 315.3928,
        "meta_mean_anomaly": 43.4262,
        "meta_ephemeris_type": 0,
        "meta_classification_type": "U",
        "meta_norad_cat_id": 31937,
        "meta_element_set_no": 999,
        "meta_rev_at_epoch": 65984,
        "meta_bstar": 0.0011794166,
        "meta_mean_motion_dot": 0.00010567,
        "meta_mean_motion_ddot": 0,
        "tle_line1": "1 31937U 99025CMN 25340.99475867  .00010567  00000+0  11794-2 0  9999",
        "tle_line2": "2 31937  99.2561  69.7316 0162921 315.3928  43.4262 14.78022374659842"
      },
      "geometry": {
        "type": "Point",
        "coordinates": [
          -102.88105380002145,
          21.586390136008816
        ]
      }
    }
  ]
}